<?xml version="1.0" encoding="UTF-8"?>
<ndm xmlns:xsi="http://www.w3.org/2001/XMLSchema-instance" xsi:noNamespaceSchemaLocation="https://sanaregistry.org/r/ndmxml_unqualified/ndmxml-2.0.0-master-2.0.xsd">
<omm id="CCSDS_OMM_VERS" version="2.0">
<header><CREATION_DATE/><ORIGINATOR/></header><body><segment><metadata><OBJECT_NAME>KUIPER-00071</OBJECT_NAME><OBJECT_ID>2025-151C</OBJECT_ID><CENTER_NAME>EARTH</CENTER_NAME><REF_FRAME>TEME</REF_FRAME><TIME_SYSTEM>UTC</TIME_SYSTEM><MEAN_ELEMENT_THEORY>SGP4</MEAN_ELEMENT_THEORY></metadata><data><meanElements><EPOCH>2026-01-14T18:24:27.565344</EPOCH><MEAN_MOTION>14.79926411</MEAN_MOTION><ECCENTRICITY>.0007578</ECCENTRICITY><INCLINATION>51.8993</INCLINATION><RA_OF_ASC_NODE>181.5218</RA_OF_ASC_NODE><ARG_OF_PERICENTER>62.3976</ARG_OF_PERICENTER><MEAN_ANOMALY>297.7755</MEAN_ANOMALY></meanElements><tleParameters><EPHEMERIS_TYPE>0</EPHEMERIS_TYPE><CLASSIFICATION_TYPE>U</CLASSIFICATION_TYPE><NORAD_CAT_ID>64818</NORAD_CAT_ID><ELEMENT_SET_NO>999</ELEMENT_SET_NO><REV_AT_EPOCH>2728</REV_AT_EPOCH><BSTAR>.23833E-3</BSTAR><MEAN_MOTION_DOT>.1595E-4</MEAN_MOTION_DOT><MEAN_MOTION_DDOT>0</MEAN_MOTION_DDOT></tleParameters></data></segment></body></omm>
<omm id="CCSDS_OMM_VERS" version="2.0">
<header><CREATION_DATE/><ORIGINATOR/></header><body><segment><metadata><OBJECT_NAME>KUIPER-00072</OBJECT_NAME><OBJECT_ID>2025-151D</OBJECT_ID><CENTER_NAME>EARTH</CENTER_NAME><REF_FRAME>TEME</REF_FRAME><TIME_SYSTEM>UTC</TIME_SYSTEM><MEAN_ELEMENT_THEORY>SGP4</MEAN_ELEMENT_THEORY></metadata><data><meanElements><EPOCH>2026-01-15T10:19:09.497856</EPOCH><MEAN_MOTION>14.81581367</MEAN_MOTION><ECCENTRICITY>.0000781</ECCENTRICITY><INCLINATION>51.8975</INCLINATION><RA_OF_ASC_NODE>158.5883</RA_OF_ASC_NODE><ARG_OF_PERICENTER>90.1384</ARG_OF_PERICENTER><MEAN_ANOMALY>269.9668</MEAN_ANOMALY></meanElements><tleParameters><EPHEMERIS_TYPE>0</EPHEMERIS_TYPE><CLASSIFICATION_TYPE>U</CLASSIFICATION_TYPE><NORAD_CAT_ID>64819</NORAD_CAT_ID><ELEMENT_SET_NO>999</ELEMENT_SET_NO><REV_AT_EPOCH>2766</REV_AT_EPOCH><BSTAR>.32371E-3</BSTAR><MEAN_MOTION_DOT>.2343E-4</MEAN_MOTION_DOT><MEAN_MOTION_DDOT>0</MEAN_MOTION_DDOT></tleParameters></data></segment></body></omm>
<omm id="CCSDS_OMM_VERS" version="2.0">
<header><CREATION_DATE/><ORIGINATOR/></header><body><segment><metadata><OBJECT_NAME>KUIPER-00073</OBJECT_NAME><OBJECT_ID>2025-151E</OBJECT_ID><CENTER_NAME>EARTH</CENTER_NAME><REF_FRAME>TEME</REF_FRAME><TIME_SYSTEM>UTC</TIME_SYSTEM><MEAN_ELEMENT_THEORY>SGP4</MEAN_ELEMENT_THEORY></metadata><data><meanElements><EPOCH>2026-01-15T11:25:56.754048</EPOCH><MEAN_MOTION>14.79914962</MEAN_MOTION><ECCENTRICITY>.0011921</ECCENTRICITY><INCLINATION>51.9002</INCLINATION><RA_OF_ASC_NODE>178.3826</RA_OF_ASC_NODE><ARG_OF_PERICENTER>78.6346</ARG_OF_PERICENTER><MEAN_ANOMALY>281.5955</MEAN_ANOMALY></meanElements><tleParameters><EPHEMERIS_TYPE>0</EPHEMERIS_TYPE><CLASSIFICATION_TYPE>U</CLASSIFICATION_TYPE><NORAD_CAT_ID>64820</NORAD_CAT_ID><ELEMENT_SET_NO>999</ELEMENT_SET_NO><REV_AT_EPOCH>2857</REV_AT_EPOCH><BSTAR>.20829E-3</BSTAR><MEAN_MOTION_DOT>.1365E-4</MEAN_MOTION_DOT><MEAN_MOTION_DDOT>0</MEAN_MOTION_DDOT></tleParameters></data></segment></body></omm>
<omm id="CCSDS_OMM_VERS" version="2.0">
<header><CREATION_DATE/><ORIGINATOR/></header><body><segment><metadata><OBJECT_NAME>KUIPER-00074</OBJECT_NAME><OBJECT_ID>2025-151F</OBJECT_ID><CENTER_NAME>EARTH</CENTER_NAME><REF_FRAME>TEME</REF_FRAME><TIME_SYSTEM>UTC</TIME_SYSTEM><MEAN_ELEMENT_THEORY>SGP4</MEAN_ELEMENT_THEORY></metadata><data><meanElements><EPOCH>2026-01-14T19:32:59.037216</EPOCH><MEAN_MOTION>14.79913892</MEAN_MOTION><ECCENTRICITY>.0013391</ECCENTRICITY><INCLINATION>51.8997</INCLINATION><RA_OF_ASC_NODE>168.8271</RA_OF_ASC_NODE><ARG_OF_PERICENTER>93.4851</ARG_OF_PERICENTER><MEAN_ANOMALY>266.7643</MEAN_ANOMALY></meanElements><tleParameters><EPHEMERIS_TYPE>0</EPHEMERIS_TYPE><CLASSIFICATION_TYPE>U</CLASSIFICATION_TYPE><NORAD_CAT_ID>64821</NORAD_CAT_ID><ELEMENT_SET_NO>999</ELEMENT_SET_NO><REV_AT_EPOCH>2746</REV_AT_EPOCH><BSTAR>-.26346E-3</BSTAR><MEAN_MOTION_DOT>-.2235E-4</MEAN_MOTION_DOT><MEAN_MOTION_DDOT>0</MEAN_MOTION_DDOT></tleParameters></data></segment></body></omm>
<omm id="CCSDS_OMM_VERS" version="2.0">
<header><CREATION_DATE/><ORIGINATOR/></header><body><segment><metadata><OBJECT_NAME>KUIPER-00075</OBJECT_NAME><OBJECT_ID>2025-151G</OBJECT_ID><CENTER_NAME>EARTH</CENTER_NAME><REF_FRAME>TEME</REF_FRAME><TIME_SYSTEM>UTC</TIME_SYSTEM><MEAN_ELEMENT_THEORY>SGP4</MEAN_ELEMENT_THEORY></metadata><data><meanElements><EPOCH>2026-01-14T13:12:07.735392</EPOCH><MEAN_MOTION>15.39576990</MEAN_MOTION><ECCENTRICITY>.0003451</ECCENTRICITY><INCLINATION>51.8721</INCLINATION><RA_OF_ASC_NODE>124.9015</RA_OF_ASC_NODE><ARG_OF_PERICENTER>108.0495</ARG_OF_PERICENTER><MEAN_ANOMALY>252.0869</MEAN_ANOMALY></meanElements><tleParameters><EPHEMERIS_TYPE>0</EPHEMERIS_TYPE><CLASSIFICATION_TYPE>U</CLASSIFICATION_TYPE><NORAD_CAT_ID>64822</NORAD_CAT_ID><ELEMENT_SET_NO>999</ELEMENT_SET_NO><REV_AT_EPOCH>2805</REV_AT_EPOCH><BSTAR>.52433E-3</BSTAR><MEAN_MOTION_DOT>.20622E-3</MEAN_MOTION_DOT><MEAN_MOTION_DDOT>0</MEAN_MOTION_DDOT></tleParameters></data></segment></body></omm>
<omm id="CCSDS_OMM_VERS" version="2.0">
<header><CREATION_DATE/><ORIGINATOR/></header><body><segment><metadata><OBJECT_NAME>KUIPER-00076</OBJECT_NAME><OBJECT_ID>2025-151H</OBJECT_ID><CENTER_NAME>EARTH</CENTER_NAME><REF_FRAME>TEME</REF_FRAME><TIME_SYSTEM>UTC</TIME_SYSTEM><MEAN_ELEMENT_THEORY>SGP4</MEAN_ELEMENT_THEORY></metadata><data><meanElements><EPOCH>2026-01-14T19:28:53.647392</EPOCH><MEAN_MOTION>14.79943456</MEAN_MOTION><ECCENTRICITY>.0005288</ECCENTRICITY><INCLINATION>51.8988</INCLINATION><RA_OF_ASC_NODE>171.3322</RA_OF_ASC_NODE><ARG_OF_PERICENTER>91.0599</ARG_OF_PERICENTER><MEAN_ANOMALY>269.0969</MEAN_ANOMALY></meanElements><tleParameters><EPHEMERIS_TYPE>0</EPHEMERIS_TYPE><CLASSIFICATION_TYPE>U</CLASSIFICATION_TYPE><NORAD_CAT_ID>64823</NORAD_CAT_ID><ELEMENT_SET_NO>999</ELEMENT_SET_NO><REV_AT_EPOCH>2743</REV_AT_EPOCH><BSTAR>.14857E-3</BSTAR><MEAN_MOTION_DOT>.911E-5</MEAN_MOTION_DOT><MEAN_MOTION_DDOT>0</MEAN_MOTION_DDOT></tleParameters></data></segment></body></omm>
<omm id="CCSDS_OMM_VERS" version="2.0">
<header><CREATION_DATE/><ORIGINATOR/></header><body><segment><metadata><OBJECT_NAME>KUIPER-00077</OBJECT_NAME><OBJECT_ID>2025-151J</OBJECT_ID><CENTER_NAME>EARTH</CENTER_NAME><REF_FRAME>TEME</REF_FRAME><TIME_SYSTEM>UTC</TIME_SYSTEM><MEAN_ELEMENT_THEORY>SGP4</MEAN_ELEMENT_THEORY></metadata><data><meanElements><EPOCH>2026-01-14T17:44:00.299904</EPOCH><MEAN_MOTION>14.79942339</MEAN_MOTION><ECCENTRICITY>.0006501</ECCENTRICITY><INCLINATION>51.9000</INCLINATION><RA_OF_ASC_NODE>176.6627</RA_OF_ASC_NODE><ARG_OF_PERICENTER>65.9640</ARG_OF_PERICENTER><MEAN_ANOMALY>294.2002</MEAN_ANOMALY></meanElements><tleParameters><EPHEMERIS_TYPE>0</EPHEMERIS_TYPE><CLASSIFICATION_TYPE>U</CLASSIFICATION_TYPE><NORAD_CAT_ID>64824</NORAD_CAT_ID><ELEMENT_SET_NO>999</ELEMENT_SET_NO><REV_AT_EPOCH>2735</REV_AT_EPOCH><BSTAR>.27124E-3</BSTAR><MEAN_MOTION_DOT>.1847E-4</MEAN_MOTION_DOT><MEAN_MOTION_DDOT>0</MEAN_MOTION_DDOT></tleParameters></data></segment></body></omm>
<omm id="CCSDS_OMM_VERS" version="2.0">
<header><CREATION_DATE/><ORIGINATOR/></header><body><segment><metadata><OBJECT_NAME>KUIPER-00078</OBJECT_NAME><OBJECT_ID>2025-151K</OBJECT_ID><CENTER_NAME>EARTH</CENTER_NAME><REF_FRAME>TEME</REF_FRAME><TIME_SYSTEM>UTC</TIME_SYSTEM><MEAN_ELEMENT_THEORY>SGP4</MEAN_ELEMENT_THEORY></metadata><data><meanElements><EPOCH>2026-01-14T20:13:45.122304</EPOCH><MEAN_MOTION>14.79929074</MEAN_MOTION><ECCENTRICITY>.0003613</ECCENTRICITY><INCLINATION>51.8981</INCLINATION><RA_OF_ASC_NODE>173.6954</RA_OF_ASC_NODE><ARG_OF_PERICENTER>125.8730</ARG_OF_PERICENTER><MEAN_ANOMALY>234.2568</MEAN_ANOMALY></meanElements><tleParameters><EPHEMERIS_TYPE>0</EPHEMERIS_TYPE><CLASSIFICATION_TYPE>U</CLASSIFICATION_TYPE><NORAD_CAT_ID>64825</NORAD_CAT_ID><ELEMENT_SET_NO>999</ELEMENT_SET_NO><REV_AT_EPOCH>2740</REV_AT_EPOCH><BSTAR>.27597E-3</BSTAR><MEAN_MOTION_DOT>.1882E-4</MEAN_MOTION_DOT><MEAN_MOTION_DDOT>0</MEAN_MOTION_DDOT></tleParameters></data></segment></body></omm>

</ndm>
